$$SOE
2459580.500000000, A.D. 2022-Jan-01 00:00:00.0000, 1.557951130973662E+08, -3.681858091391518E+08, -1.101807877771507E+07,
2459587.500000000, A.D. 2022-Jan-08 00:00:00.0000, 1.663127277581689E+08, -3.628067560933396E+08, -1.126985571697634E+07,
2459594.500000000, A.D. 2022-Jan-15 00:00:00.0000, 1.767035875405629E+08, -3.571509884370946E+08, -1.151303755239920E+07,
2459601.500000000, A.D. 2022-Jan-22 00:00:00.0000, 1.869591376161371E+08, -3.512215273491333E+08, -1.174739757832591E+07,
2459608.500000000, A.D. 2022-Jan-29 00:00:00.0000, 1.970708977743068E+08, -3.450217273817668E+08, -1.197271683474933E+07,
2459615.500000000, A.D. 2022-Feb-05 00:00:00.0000, 2.070304771651686E+08, -3.385552759104579E+08, -1.218878448643701E+07,
2459622.500000000, A.D. 2022-Feb-12 00:00:00.0000, 2.168295912767564E+08, -3.318261925769383E+08, -1.239539847170691E+07,
2459629.500000000, A.D. 2022-Feb-19 00:00:00.0000, 2.264600797410640E+08, -3.248388263428336E+08, -1.259236610297364E+07,
2459636.500000000, A.D. 2022-Feb-26 00:00:00.0000, 2.359139235737629E+08, -3.175978508702754E+08, -1.277950455518223E+07,
2459643.500000000, A.D. 2022-Mar-05 00:00:00.0000, 2.451832619214912E+08, -3.101082588468668E+08, -1.295664130462982E+07,
2459650.500000000, A.D. 2022-Mar-12 00:00:00.0000, 2.542604084526026E+08, -3.023753553288177E+08, -1.312361454152150E+07,
2459657.500000000, A.D. 2022-Mar-19 00:00:00.0000, 2.631378673766235E+08, -2.944047500902586E+08, -1.328027355827282E+07,
2459664.500000000, A.D. 2022-Mar-26 00:00:00.0000, 2.718083490295832E+08, -2.862023490083725E+08, -1.342647911406641E+07,
2459671.500000000, A.D. 2022-Apr-02 00:00:00.0000, 2.802647850093859E+08, -2.777743445707409E+08, -1.356210378464150E+07,
2459678.500000000, A.D. 2022-Apr-09 00:00:00.0000, 2.885003430535247E+08, -2.691272055375867E+08, -1.368703232023537E+07,
2459685.500000000, A.D. 2022-Apr-16 00:00:00.0000, 2.965084419421403E+08, -2.602676651512485E+08, -1.380116198941697E+07,
2459692.500000000, A.D. 2022-Apr-23 00:00:00.0000, 3.042827650878649E+08, -2.512027068646598E+08, -1.390440270239116E+07,
2459699.500000000, A.D. 2022-Apr-30 00:00:00.0000, 3.118172708750041E+08, -2.419395498962727E+08, -1.399667692463914E+07,
2459706.500000000, A.D. 2022-May-07 00:00:00.0000, 3.191062027477968E+08, -2.324856366502171E+08, -1.407791982236913E+07,
2459713.500000000, A.D. 2022-May-14 00:00:00.0000, 3.261441003821671E+08, -2.228486190342994E+08, -1.414807951837504E+07,
2459720.500000000, A.D. 2022-May-21 00:00:00.0000, 3.329258098617156E+08, -2.130363429944474E+08, -1.420711720960183E+07,
2459727.500000000, A.D. 2022-May-28 00:00:00.0000, 3.394464923360177E+08, -2.030568323049480E+08, -1.425500718072765E+07,
2459734.500000000, A.D. 2022-Jun-04 00:00:00.0000, 3.457016314016831E+08, -1.929182720085912E+08, -1.429173676494172E+07,
2459741.500000000, A.D. 2022-Jun-11 00:00:00.0000, 3.516870393234743E+08, -1.826289915860885E+08, -1.431730626554836E+07,
2459748.500000000, A.D. 2022-Jun-18 00:00:00.0000, 3.573988621180254E+08, -1.721974479245724E+08, -1.433172884172463E+07,
2459755.500000000, A.D. 2022-Jun-25 00:00:00.0000, 3.628335835237979E+08, -1.616322082043830E+08, -1.433503036498721E+07,
2459762.500000000, A.D. 2022-Jul-02 00:00:00.0000, 3.679880279926821E+08, -1.509419328578718E+08, -1.432724926541927E+07,
2459769.500000000, A.D. 2022-Jul-09 00:00:00.0000, 3.728593631004436E+08, -1.401353585096753E+08, -1.430843639051160E+07,
2459776.500000000, A.D. 2022-Jul-16 00:00:00.0000, 3.774451013360827E+08, -1.292212798990524E+08, -1.427865478457391E+07,
2459783.500000000, A.D. 2022-Jul-23 00:00:00.0000, 3.817430990958214E+08, -1.182085307892920E+08, -1.423797918236350E+07,
2459790.500000000, A.D. 2022-Jul-30 00:00:00.0000, 3.857515529932083E+08, -1.071059672981466E+08, -1.418649550077597E+07,
2459797.500000000, A.D. 2022-Aug-06 00:00:00.0000, 3.894689971148701E+08, -9.592245307377943E+07, -1.412430060793476E+07,
2459804.500000000, A.D. 2022-Aug-13 00:00:00.0000, 3.928943004378743E+08, -8.466684362885630E+07, -1.405150207122412E+07,
2459811.500000000, A.D. 2022-Aug-20 00:00:00.0000, 3.960266628855910E+08, -7.334797039985195E+07, -1.396821778367015E+07,
2459818.500000000, A.D. 2022-Aug-27 00:00:00.0000, 3.988656101406667E+08, -6.197462531726435E+07, -1.387457553661208E+07,
2459825.500000000, A.D. 2022-Sep-03 00:00:00.0000, 4.014109875168345E+08, -5.055554605090924E+07, -1.377071257281333E+07,
2459832.500000000, A.D. 2022-Sep-10 00:00:00.0000, 4.036629530363190E+08, -3.909940195413484E+07, -1.365677512871250E+07,
2459839.500000000, A.D. 2022-Sep-17 00:00:00.0000, 4.056219698013102E+08, -2.761478075033126E+07, -1.353291797106738E+07,
2459846.500000000, A.D. 2022-Sep-24 00:00:00.0000, 4.072887977809122E+08, -1.611017604812882E+07, -1.339930394015570E+07,
2459853.500000000, A.D. 2022-Oct-01 00:00:00.0000, 4.086644853153080E+08, -4.593975737137822E+06, -1.325610352596186E+07,
2459860.500000000, A.D. 2022-Oct-08 00:00:00.0000, 4.097503608056325E+08, 6.925549235248871E+06, -1.310349447468997E+07,
2459867.500000000, A.D. 2022-Oct-15 00:00:00.0000, 4.105480237211242E+08, 1.844025689074235E+07, -1.294166124457495E+07,
2459874.500000000, A.D. 2022-Oct-22 00:00:00.0000, 4.110593328106809E+08, 2.994214535632781E+07, -1.277079425094654E+07,
2459881.500000000, A.D. 2022-Oct-29 00:00:00.0000, 4.112863940826166E+08, 4.142336050697122E+07, -1.259108934435956E+07,
2459888.500000000, A.D. 2022-Nov-05 00:00:00.0000, 4.112315507117313E+08, 5.287620285284622E+07, -1.240274749285583E+07,
2459895.500000000, A.D. 2022-Nov-12 00:00:00.0000, 4.108973729678358E+08, 6.429313494138049E+07, -1.220597438666113E+07,
2459902.500000000, A.D. 2022-Nov-19 00:00:00.0000, 4.102866475042582E+08, 7.566678832695529E+07, -1.200097997918727E+07,
2459909.500000000, A.D. 2022-Nov-26 00:00:00.0000, 4.094023663234061E+08, 8.698996972163036E+07, -1.178797802256868E+07,
2459916.500000000, A.D. 2022-Dec-03 00:00:00.0000, 4.082477156369218E+08, 9.825566632992136E+07, -1.156718561540803E+07,
2459923.500000000, A.D. 2022-Dec-10 00:00:00.0000, 4.068260647142467E+08, 1.094570504044696E+08, -1.133882276667909E+07,
2459930.500000000, A.D. 2022-Dec-17 00:00:00.0000, 4.051409547895351E+08, 1.205874830189584E+08, -1.110311198120721E+07,
2459937.500000000, A.D. 2022-Dec-24 00:00:00.0000, 4.031960881785978E+08, 1.316405170163959E+08, -1.086027788310306E+07,
2459944.500000000, A.D. 2022-Dec-31 00:00:00.0000, 4.009953180023919E+08, 1.426098992657658E+08, -1.061054690205491E+07,
2459951.500000000, A.D. 2023-Jan-07 00:00:00.0000, 3.985426386732216E+08, 1.534895732161880E+08, -1.035414695582972E+07,
2459958.500000000, A.D. 2023-Jan-14 00:00:00.0000, 3.958421752060370E+08, 1.642736822761973E+08, -1.009130690822884E+07,
2459965.500000000, A.D. 2023-Jan-21 00:00:00.0000, 3.928981707414631E+08, 1.749565708786699E+08, -9.822256002811491E+06,
2459972.500000000, A.D. 2023-Jan-28 00:00:00.0000, 3.897149759765140E+08, 1.855327830656967E+08, -9.547223625326909E+06,
2459979.500000000, A.D. 2023-Feb-04 00:00:00.0000, 3.862970403144501E+08, 1.959970616507032E+08, -9.266439128567055E+06,
2459986.500000000, A.D. 2023-Feb-11 00:00:00.0000, 3.826489029552617E+08, 2.063443477953801E+08, -8.980131570750356E+06,
2459993.500000000, A.D. 2023-Feb-18 00:00:00.0000, 3.787751838774282E+08, 2.165697802095686E+08, -8.688529428779468E+06,
2460000.500000000, A.D. 2023-Feb-25 00:00:00.0000, 3.746805749841863E+08, 2.266686938441783E+08, -8.391860323446810E+06,
2460007.500000000, A.D. 2023-Mar-04 00:00:00.0000, 3.703698315247215E+08, 2.366366181290277E+08, -8.090350764009237E+06,
2460014.500000000, A.D. 2023-Mar-11 00:00:00.0000, 3.658477638264484E+08, 2.464692747898280E+08, -7.784225914165139E+06,
2460021.500000000, A.D. 2023-Mar-18 00:00:00.0000, 3.611192293926469E+08, 2.561625752277609E+08, -7.473709387186080E+06,
2460028.500000000, A.D. 2023-Mar-25 00:00:00.0000, 3.561891255748898E+08, 2.657126174454271E+08, -7.159023092112675E+06,
2460035.500000000, A.D. 2023-Apr-01 00:00:00.0000, 3.510623832487519E+08, 2.751156829407536E+08, -6.840387137302324E+06,
2460042.500000000, A.D. 2023-Apr-08 00:00:00.0000, 3.457439608769397E+08, 2.843682348188439E+08, -6.518019634269908E+06,
2460049.500000000, A.D. 2023-Apr-15 00:00:00.0000, 3.402388366180676E+08, 2.934669160411837E+08, -6.192136276989564E+06,
2460056.500000000, A.D. 2023-Apr-22 00:00:00.0000, 3.345520002877433E+08, 3.024085447877005E+08, -5.862950111221179E+06,
2460063.500000000, A.D. 2023-Apr-29 00:00:00.0000, 3.286884479042015E+08, 3.111901092076542E+08, -5.530671560293362E+06,
2460070.500000000, A.D. 2023-May-06 00:00:00.0000, 3.226531770509881E+08, 3.198087633611944E+08, -5.195508399868727E+06,
2460077.500000000, A.D. 2023-May-13 00:00:00.0000, 3.164511820718271E+08, 3.282618234790064E+08, -4.857665664562121E+06,
2460084.500000000, A.D. 2023-May-20 00:00:00.0000, 3.100874493238658E+08, 3.365467640689871E+08, -4.517345547576696E+06,
2460091.500000000, A.D. 2023-May-27 00:00:00.0000, 3.035669526743532E+08, 3.446612138590476E+08, -4.174747313151732E+06,
2460098.500000000, A.D. 2023-Jun-03 00:00:00.0000, 2.968946492892839E+08, 3.526029516191288E+08, -3.830067224667236E+06,
2460105.500000000, A.D. 2023-Jun-10 00:00:00.0000, 2.900754757282079E+08, 3.603699018644756E+08, -3.483498491411805E+06,
2460112.500000000, A.D. 2023-Jun-17 00:00:00.0000, 2.831143444242831E+08, 3.679601303947635E+08, -3.135231246786371E+06,
2460119.500000000, A.D. 2023-Jun-24 00:00:00.0000, 2.760161408595961E+08, 3.753718397384670E+08, -2.785452582448214E+06,
2460126.500000000, A.D. 2023-Jul-01 00:00:00.0000, 2.687857216793291E+08, 3.826033653428391E+08, -2.434346593708903E+06,
2460133.500000000, A.D. 2023-Jul-08 00:00:00.0000, 2.614279120600994E+08, 3.896531733408180E+08, -2.082094215208948E+06,
2460140.500000000, A.D. 2023-Jul-15 00:00:00.0000, 2.539475010428140E+08, 3.965198570743532E+08, -1.728872960395902E+06,
2460147.500000000, A.D. 2023-Jul-22 00:00:00.0000, 2.463492383413092E+08, 4.032021313514519E+08, -1.374856971821010E+06,
$$EOE